ONEWEB-0120             
1 47266U 20100J   25165.76585198  .00000091  00000+0  21669-3 0  9992
2 47266  87.8887  63.7588 0002071  77.4981 282.6379 13.12446207216530
ONEWEB-0121             
1 47267U 20100K   25165.75438111 -.00000194  00000+0 -57460-3 0  9998
2 47267  87.8879  63.7326 0001894  82.6471 277.4873 13.12444877216448
ONEWEB-0122             
1 47268U 20100L   25165.74935647 -.00000359  00000+0 -10328-2 0  9998
2 47268  87.8881  63.7391 0002007  81.9522 278.1834 13.12443652216355
ONEWEB-0123             
1 47269U 20100M   25165.66838558 -.00000626  00000+0 -17764-2 0  9991
2 47269  87.8885  63.7816 0001960  75.6153 284.5193 13.12443160216486
ONEWEB-0124             
1 47270U 20100N   25165.73327176 -.00000328  00000+0 -94782-3 0  9995
2 47270  87.8886  63.7674 0001679  80.4362 279.6956 13.12440560216375
ONEWEB-0125             
1 47271U 20100P   25165.78680225  .00000415  00000+0  11176-2 0  9998
2 47271  87.8889  63.7195 0001700  71.8456 288.2857 13.12441070216441
ONEWEB-0126             
1 47272U 20100Q   25165.96052104 -.00000163  00000+0 -48856-3 0  9996
2 47272  87.8906  63.6953 0001972  77.5129 282.6220 13.12443087216536
ONEWEB-0127             
1 47273U 20100R   25165.77382302  .00000403  00000+0  10843-2 0  9991
2 47273  87.8887  63.7547 0002088  79.8964 280.2400 13.12445735216532
